{
  "type": "FeatureCollection",
  "features": [
    {
      "type": "Feature",
      "properties": {
        "norad_id": 58647,
        "name": "TIANMU-1 13",
        "group": "weather",
        "lat": 21.53257268005738,
        "lon": -6.7372345934449305,
        "alt_km": 491.0703418236326,
        "timestamp": "2025-12-02T08:59:32.362697+00:00",
        "meta_object_name": "TIANMU-1 13",
        "meta_object_id": "2023-205C",
        "meta_epoch": "2025-12-01T20:17:36.448800",
        "meta_mean_motion": 15.24308305,
        "meta_eccentricity": 0.0006508,
        "meta_inclination": 97.3634,
        "meta_ra_of_asc_node": 355.6677,
        "meta_arg_of_pericenter": 315.893,
        "meta_mean_anomaly": 44.1787,
        "meta_ephemeris_type": 0,
        "meta_classification_type": "U",
        "meta_norad_cat_id": 58647,
        "meta_element_set_no": 999,
        "meta_rev_at_epoch": 10741,
        "meta_bstar": 0.00027821,
        "meta_mean_motion_dot": 6.734e-05,
        "meta_mean_motion_ddot": 0,
        "tle_line1": "1 58647U 23205C   25335.84556075  .00006734  00000+0  27821-3 0  9992",
        "tle_line2": "2 58647  97.3634 355.6677 0006508 315.8930  44.1787 15.24308305107416"
      },
      "geometry": {
        "type": "Point",
        "coordinates": [
          -6.7372345934449305,
          21.53257268005738
        ]
      }
    },
    {
      "type": "Feature",
      "properties": {
        "norad_id": 58648,
        "name": "TIANMU-1 14",
        "group": "weather",
        "lat": 65.44997230052809,
        "lon": -168.02463046257012,
        "alt_km": 491.16139380135064,
        "timestamp": "2025-12-02T08:59:32.362707+00:00",
        "meta_object_name": "TIANMU-1 14",
        "meta_object_id": "2023-205D",
        "meta_epoch": "2025-12-02T05:20:43.075392",
        "meta_mean_motion": 15.2429999,
        "meta_eccentricity": 0.0007404,
        "meta_inclination": 97.3564,
        "meta_ra_of_asc_node": 355.3967,
        "meta_arg_of_pericenter": 318.3316,
        "meta_mean_anomaly": 41.7357,
        "meta_ephemeris_type": 0,
        "meta_classification_type": "U",
        "meta_norad_cat_id": 58648,
        "meta_element_set_no": 999,
        "meta_rev_at_epoch": 10747,
        "meta_bstar": 0.000325,
        "meta_mean_motion_dot": 7.879e-05,
        "meta_mean_motion_ddot": 0,
        "tle_line1": "1 58648U 23205D   25336.22272078  .00007879  00000+0  32500-3 0  9995",
        "tle_line2": "2 58648  97.3564 355.3967 0007404 318.3316  41.7357 15.24299990107471"
      },
      "geometry": {
        "type": "Point",
        "coordinates": [
          -168.02463046257012,
          65.44997230052809
        ]
      }
    },
    {
      "type": "Feature",
      "properties": {
        "norad_id": 58660,
        "name": "TIANMU-1 19",
        "group": "weather",
        "lat": -64.46872584474794,
        "lon": -108.4408452839271,
        "alt_km": 488.69600777580126,
        "timestamp": "2025-12-02T08:59:32.362717+00:00",
        "meta_object_name": "TIANMU-1 19",
        "meta_object_id": "2023-208A",
        "meta_epoch": "2025-12-02T04:46:34.628160",
        "meta_mean_motion": 15.27544067,
        "meta_eccentricity": 0.0004177,
        "meta_inclination": 97.4389,
        "meta_ra_of_asc_node": 87.2595,
        "meta_arg_of_pericenter": 299.9305,
        "meta_mean_anomaly": 60.1519,
        "meta_ephemeris_type": 0,
        "meta_classification_type": "U",
        "meta_norad_cat_id": 58660,
        "meta_element_set_no": 999,
        "meta_rev_at_epoch": 10721,
        "meta_bstar": 0.00044957,
        "meta_mean_motion_dot": 0.00012047,
        "meta_mean_motion_ddot": 0,
        "tle_line1": "1 58660U 23208A   25336.19901190  .00012047  00000+0  44957-3 0  9994",
        "tle_line2": "2 58660  97.4389  87.2595 0004177 299.9305  60.1519 15.27544067107213"
      },
      "geometry": {
        "type": "Point",
        "coordinates": [
          -108.4408452839271,
          -64.46872584474794
        ]
      }
    },
    {
      "type": "Feature",
      "properties": {
        "norad_id": 58661,
        "name": "TIANMU-1 20",
        "group": "weather",
        "lat": -80.88476251219276,
        "lon": 142.32621697149952,
        "alt_km": 483.20615673598695,
        "timestamp": "2025-12-02T08:59:32.362727+00:00",
        "meta_object_name": "TIANMU-1 20",
        "meta_object_id": "2023-208B",
        "meta_epoch": "2025-12-02T04:38:57.319872",
        "meta_mean_motion": 15.28737613,
        "meta_eccentricity": 0.0006533,
        "meta_inclination": 97.4326,
        "meta_ra_of_asc_node": 87.6914,
        "meta_arg_of_pericenter": 309.5949,
        "meta_mean_anomaly": 50.4713,
        "meta_ephemeris_type": 0,
        "meta_classification_type": "U",
        "meta_norad_cat_id": 58661,
        "meta_element_set_no": 999,
        "meta_rev_at_epoch": 10728,
        "meta_bstar": 0.00044046,
        "meta_mean_motion_dot": 0.00012244,
        "meta_mean_motion_ddot": 0,
        "tle_line1": "1 58661U 23208B   25336.19371898  .00012244  00000+0  44046-3 0  9999",
        "tle_line2": "2 58661  97.4326  87.6914 0006533 309.5949  50.4713 15.28737613107281"
      },
      "geometry": {
        "type": "Point",
        "coordinates": [
          142.32621697149952,
          -80.88476251219276
        ]
      }
    },
    {
      "type": "Feature",
      "properties": {
        "norad_id": 58662,
        "name": "TIANMU-1 21",
        "group": "weather",
        "lat": -7.447810855574742,
        "lon": -91.24402390910544,
        "alt_km": 478.058990338629,
        "timestamp": "2025-12-02T08:59:32.362738+00:00",
        "meta_object_name": "TIANMU-1 21",
        "meta_object_id": "2023-208C",
        "meta_epoch": "2025-12-02T05:02:20.887872",
        "meta_mean_motion": 15.31196492,
        "meta_eccentricity": 0.0006029,
        "meta_inclination": 97.4374,
        "meta_ra_of_asc_node": 89.5693,
        "meta_arg_of_pericenter": 304.0058,
        "meta_mean_anomaly": 56.061,
        "meta_ephemeris_type": 0,
        "meta_classification_type": "U",
        "meta_norad_cat_id": 58662,
        "meta_element_set_no": 999,
        "meta_rev_at_epoch": 10738,
        "meta_bstar": 0.00046892,
        "meta_mean_motion_dot": 0.0001407,
        "meta_mean_motion_ddot": 0,
        "tle_line1": "1 58662U 23208C   25336.20996398  .00014070  00000+0  46892-3 0  9990",
        "tle_line2": "2 58662  97.4374  89.5693 0006029 304.0058  56.0610 15.31196492107388"
      },
      "geometry": {
        "type": "Point",
        "coordinates": [
          -91.24402390910544,
          -7.447810855574742
        ]
      }
    },
    {
      "type": "Feature",
      "properties": {
        "norad_id": 58663,
        "name": "TIANMU-1 22",
        "group": "weather",
        "lat": -73.69991681787846,
        "lon": -119.03911485602077,
        "alt_km": 490.74800622461953,
        "timestamp": "2025-12-02T08:59:32.362748+00:00",
        "meta_object_name": "TIANMU-1 22",
        "meta_object_id": "2023-208D",
        "meta_epoch": "2025-12-02T04:43:56.076384",
        "meta_mean_motion": 15.27320205,
        "meta_eccentricity": 0.0003167,
        "meta_inclination": 97.4383,
        "meta_ra_of_asc_node": 87.3213,
        "meta_arg_of_pericenter": 335.5261,
        "meta_mean_anomaly": 24.5827,
        "meta_ephemeris_type": 0,
        "meta_classification_type": "U",
        "meta_norad_cat_id": 58663,
        "meta_element_set_no": 999,
        "meta_rev_at_epoch": 10722,
        "meta_bstar": 0.00043207,
        "meta_mean_motion_dot": 0.00011495,
        "meta_mean_motion_ddot": 0,
        "tle_line1": "1 58663U 23208D   25336.19717681  .00011495  00000+0  43207-3 0  9990",
        "tle_line2": "2 58663  97.4383  87.3213 0003167 335.5261  24.5827 15.27320205107227"
      },
      "geometry": {
        "type": "Point",
        "coordinates": [
          -119.03911485602077,
          -73.69991681787846
        ]
      }
    },
    {
      "type": "Feature",
      "properties": {
        "norad_id": 58700,
        "name": "TIANMU-1 15",
        "group": "weather",
        "lat": 46.64301429678036,
        "lon": -14.138135440992082,
        "alt_km": 491.9970600226634,
        "timestamp": "2025-12-02T08:59:32.362758+00:00",
        "meta_object_name": "TIANMU-1 15",
        "meta_object_id": "2024-004A",
        "meta_epoch": "2025-12-01T19:48:33.143904",
        "meta_mean_motion": 15.24448553,
        "meta_eccentricity": 0.0005913,
        "meta_inclination": 97.463,
        "meta_ra_of_asc_node": 157.3347,
        "meta_arg_of_pericenter": 341.8659,
        "meta_mean_anomaly": 18.2366,
        "meta_ephemeris_type": 0,
        "meta_classification_type": "U",
        "meta_norad_cat_id": 58700,
        "meta_element_set_no": 999,
        "meta_rev_at_epoch": 10568,
        "meta_bstar": 0.00029409,
        "meta_mean_motion_dot": 7.151e-05,
        "meta_mean_motion_ddot": 0,
        "tle_line1": "1 58700U 24004A   25335.82538361  .00007151  00000+0  29409-3 0  9994",
        "tle_line2": "2 58700  97.4630 157.3347 0005913 341.8659  18.2366 15.24448553105682"
      },
      "geometry": {
        "type": "Point",
        "coordinates": [
          -14.138135440992082,
          46.64301429678036
        ]
      }
    }
  ]
}